[{"OBJECT_NAME":"STARLINK-36413","OBJECT_ID":"2026-003E","EPOCH":"2026-03-09T12:19:17.810976","MEAN_MOTION":15.27603017,"ECCENTRICITY":0.00015836,"INCLINATION":43.002,"RA_OF_ASC_NODE":228.3477,"ARG_OF_PERICENTER":287.9271,"MEAN_ANOMALY":72.1408,"EPHEMERIS_TYPE":0,"CLASSIFICATION_TYPE":"U","NORAD_CAT_ID":67338,"ELEMENT_SET_NO":999,"REV_AT_EPOCH":879,"BSTAR":0.0011451229,"MEAN_MOTION_DOT":0.00031406,"MEAN_MOTION_DDOT":0},{"OBJECT_NAME":"CZ-4C R\/B","OBJECT_ID":"2024-089B","EPOCH":"2026-03-09T16:45:24.409152","MEAN_MOTION":15.30115456,"ECCENTRICITY":0.00763424,"INCLINATION":97.7122,"RA_OF_ASC_NODE":107.3872,"ARG_OF_PERICENTER":235.0262,"MEAN_ANOMALY":124.3793,"EPHEMERIS_TYPE":0,"CLASSIFICATION_TYPE":"U","NORAD_CAT_ID":59729,"ELEMENT_SET_NO":999,"REV_AT_EPOCH":10143,"BSTAR":0.00030010198,"MEAN_MOTION_DOT":9.476e-5,"MEAN_MOTION_DDOT":0}]
